KEPLER-21               
1 56218U 23054AS  26068.80780274  .00079942  00000+0  58135-3 0  9999
2 56218  97.2962 342.6260 0004885  55.6816 304.4910 15.73096759163494
STARLINK-11685 [DTC]    
1 63552U 25075E   26068.25640870  .00222538  00000+0  16895-2 0  9996
2 63552  42.9985 156.1282 0001521 228.1897 131.8841 15.70871279 53181
